NORAD_CAT_ID,OBJECT_NAME,OBJECT_TYPE,EPOCH,MEAN_MOTION,ECCENTRICITY,INCLINATION,RA_OF_ASC_NODE,ARG_OF_PERICENTER,MEAN_ANOMALY,BSTAR,MEAN_MOTION_DOT,MEAN_MOTION_DDOT,TLE_LINE0,TLE_LINE1,TLE_LINE2,SEMIMAJOR_AXIS,PERIOD,APOGEE,PERIGEE,DECAYED
53550.0,STARLINK-4518,PAYLOAD,2023-10-17 12:05:04,15.08848124,0.0001703,53.2194,28.4994,105.5414,254.5767,0.00040232,6.122e-05,0.0,0 STARLINK-4518,1 53550U 22101Z   23290.50352077  .00006122  00000-0  40232-3 0  9994,2 53550  53.2194  28.4994 0001703 105.5414 254.5767 15.08848124 64334,6917.856,95.437,540.899,538.542,0.0
53550.0,STARLINK-4518,PAYLOAD,2023-10-17 13:40:27,15.08850554,0.0001497,53.2189,28.2029,94.2583,265.858,0.00043886,6.705e-05,0.0,0 STARLINK-4518,1 53550U 22101Z   23290.56976020  .00006705  00000-0  43886-3 0  9995,2 53550  53.2189  28.2029 0001497  94.2583 265.8580 15.08850554 65009,6917.848,95.437,540.749,538.678,0.0
53550.0,STARLINK-4518,PAYLOAD,2023-10-17 23:12:45,15.08850361,0.0001264,53.2182,26.4125,74.1481,285.965,0.000267,3.965e-05,0.0,0 STARLINK-4518,1 53550U 22101Z   23290.96719686  .00003965  00000-0  26700-3 0  9993,2 53550  53.2182  26.4125 0001264  74.1481 285.9650 15.08850361 65068,6917.849,95.437,540.588,538.839,0.0
53550.0,STARLINK-4518,PAYLOAD,2023-10-18 13:31:14,15.08840425,0.0001319,53.2162,23.7419,81.5801,278.5341,-5.7053e-05,-1.196e-05,0.0,0 STARLINK-4518,1 53550U 22101Z   23291.56336192 -.00001196  00000-0 -57053-4 0  9999,2 53550  53.2162  23.7419 0001319  81.5801 278.5341 15.08840425 64492,6917.879,95.438,540.657,538.832,0.0
53550.0,STARLINK-4518,PAYLOAD,2023-10-19 11:46:37,15.08856951,0.0001418,53.2165,19.5781,78.3667,281.7484,0.00050315,7.732e-05,0.0,0 STARLINK-4518,1 53550U 22101Z   23292.49071672  .00007732  00000-0  50315-3 0  9994,2 53550  53.2165  19.5781 0001418  78.3667 281.7484 15.08856951 64635,6917.829,95.436,540.675,538.713,0.0
53550.0,STARLINK-4518,PAYLOAD,2023-10-19 22:54:19,15.08848521,0.000181,53.218,17.4925,87.7078,272.4122,0.00037858,5.744e-05,0.0,0 STARLINK-4518,1 53550U 22101Z   23292.95439706  .00005744  00000-0  37858-3 0  9999,2 53550  53.2180  17.4925 0001810  87.7078 272.4122 15.08848521 64703,6917.854,95.437,540.971,538.467,0.0
53550.0,STARLINK-4518,PAYLOAD,2023-10-20 11:37:25,15.08833436,0.0001593,53.2157,15.1179,87.2666,272.8508,-0.00012723,-2.312e-05,0.0,0 STARLINK-4518,1 53550U 22101Z   23293.48432198 -.00002312  00000-0 -12723-3 0  9990,2 53550  53.2157  15.1179 0001593  87.2666 272.8508 15.08833436 64788,6917.9,95.438,540.867,538.663,0.0
53550.0,STARLINK-4518,PAYLOAD,2023-10-21 11:28:12,15.08841644,0.0001758,53.2168,10.6581,92.5438,267.5756,0.00061643,9.537e-05,0.0,0 STARLINK-4518,1 53550U 22101Z   23294.47792820  .00009537  00000-0  61643-3 0  9990,2 53550  53.2168  10.6581 0001758  92.5438 267.5756 15.08841644 65592,6917.875,95.437,540.957,538.524,0.0
53550.0,STARLINK-4518,PAYLOAD,2023-10-21 22:35:54,15.08841148,0.0001583,53.2157,8.5753,88.7576,271.3598,0.00039468,5.999e-05,0.0,0 STARLINK-4518,1 53550U 22101Z   23294.94160852  .00005999  00000-0  39468-3 0  9994,2 53550  53.2157   8.5753 0001583  88.7576 271.3598 15.08841148 65005,6917.877,95.437,540.837,538.647,0.0
53550.0,STARLINK-4518,PAYLOAD,2023-10-22 11:19:00,15.08834563,0.0001759,53.218,6.1939,111.6694,248.4485,0.00017515,2.5e-05,0.0,0 STARLINK-4518,1 53550U 22101Z   23295.47153120  .00002500  00000-0  17515-3 0  9997,2 53550  53.2180   6.1939 0001759 111.6694 248.4485 15.08834563 65084,6917.897,95.438,540.979,538.545,0.0
53550.0,STARLINK-4518,PAYLOAD,2023-10-22 22:26:42,15.08840036,0.0001662,53.2183,4.1129,103.0406,257.0772,0.00024593,3.628e-05,0.0,0 STARLINK-4518,1 53550U 22101Z   23295.93521228  .00003628  00000-0  24593-3 0  9992,2 53550  53.2183   4.1129 0001662 103.0406 257.0772 15.08840036 65813,6917.88,95.438,540.895,538.596,0.0
53550.0,STARLINK-4518,PAYLOAD,2023-10-23 11:09:47,15.08843019,0.0001712,53.2185,1.7335,101.8274,258.2911,0.00012874,1.762e-05,0.0,0 STARLINK-4518,1 53550U 22101Z   23296.46513141  .00001762  00000-0  12874-3 0  9992,2 53550  53.2185   1.7335 0001712 101.8274 258.2911 15.08843019 65892,6917.871,95.437,540.921,538.552,0.0
53550.0,STARLINK-4518,PAYLOAD,2023-10-24 04:39:02,15.08839334,0.0001734,53.2185,358.464,94.4993,265.6197,0.00016342,2.314e-05,0.0,0 STARLINK-4518,1 53550U 22101Z   23297.19377458  .00002314  00000-0  16342-3 0  9990,2 53550  53.2185 358.4640 0001734  94.4993 265.6197 15.08839334 65345,6917.882,95.438,540.947,538.548,0.0
53550.0,STARLINK-4518,PAYLOAD,2023-10-24 11:00:34,15.0884339,0.0001445,53.2178,357.2742,89.8844,270.2314,0.00016318,2.31e-05,0.0,0 STARLINK-4518,1 53550U 22101Z   23297.45873280  .00002310  00000-0  16318-3 0  9992,2 53550  53.2178 357.2742 0001445  89.8844 270.2314 15.08843390 66047,6917.87,95.437,540.735,538.735,0.0
53550.0,STARLINK-4518,PAYLOAD,2023-10-25 10:51:21,15.08836181,0.0001568,53.2175,352.8146,89.4502,270.667,0.0005483,8.448e-05,0.0,0 STARLINK-4518,1 53550U 22101Z   23298.45233565  .00008448  00000-0  54830-3 0  9998,2 53550  53.2175 352.8146 0001568  89.4502 270.6670 15.08836181 65538,6917.892,95.438,540.842,538.672,0.0
53550.0,STARLINK-4518,PAYLOAD,2023-10-25 20:23:40,15.08841978,0.0001526,53.2174,351.0308,91.0029,269.1138,8.2337e-05,1.023e-05,0.0,0 STARLINK-4518,1 53550U 22101Z   23298.84977119  .00001023  00000-0  82337-4 0  9997,2 53550  53.2174 351.0308 0001526  91.0029 269.1138 15.08841978 66257,6917.874,95.437,540.795,538.684,0.0
53550.0,STARLINK-4518,PAYLOAD,2023-10-26 09:06:45,15.08839867,0.0001504,53.219,348.6522,97.9622,262.1541,9.3935e-05,1.207e-05,0.0,0 STARLINK-4518,1 53550U 22101Z   23299.37969456  .00001207  00000-0  93935-4 0  9991,2 53550  53.2190 348.6522 0001504  97.9622 262.1541 15.08839867 65675,6917.881,95.438,540.786,538.705,0.0
53550.0,STARLINK-4518,PAYLOAD,2023-10-26 20:14:27,15.08847574,0.0001512,53.2189,346.5712,90.5368,269.5797,7.8486e-05,9.62e-06,0.0,0 STARLINK-4518,1 53550U 22101Z   23299.84336924  .00000962  00000-0  78486-4 0  9992,2 53550  53.2189 346.5712 0001512  90.5368 269.5797 15.08847574 66406,6917.857,95.437,540.768,538.676,0.0
53550.0,STARLINK-4518,PAYLOAD,2023-10-27 12:08:17,15.08854428,0.0001505,53.2172,343.5946,92.2291,267.8873,0.00013892,1.924e-05,0.0,0 STARLINK-4518,1 53550U 22101Z   23300.50576134  .00001924  00000-0  13892-3 0  9995,2 53550  53.2172 343.5946 0001505  92.2291 267.8873 15.08854428 65849,6917.836,95.437,540.742,538.66,0.0
53550.0,STARLINK-4518,PAYLOAD,2023-10-27 20:05:14,15.08838276,0.0001688,53.2178,342.109,92.848,267.2705,2.1874e-07,-2.85e-06,0.0,0 STARLINK-4518,1 53550U 22101Z   23300.83697024 -.00000285  00000-0  21874-6 0  9995,2 53550  53.2178 342.1090 0001688  92.8480 267.2705 15.08838276 65894,6917.886,95.438,540.918,538.583,0.0
53550.0,STARLINK-4518,PAYLOAD,2023-10-28 10:23:42,15.08834983,0.0001621,53.2173,339.4335,97.8333,262.2843,3.0487e-06,-2.4e-06,0.0,0 STARLINK-4518,1 53550U 22101Z   23301.43313456 -.00000240  00000-0  30487-5 0  9996,2 53550  53.2173 339.4335 0001621  97.8333 262.2843 15.08834983 66642,6917.896,95.438,540.882,538.639,0.0
53550.0,STARLINK-4518,PAYLOAD,2023-10-28 19:56:01,15.08839298,0.0001667,53.2178,337.6497,86.1681,273.9501,5.7265e-05,6.23e-06,0.0,0 STARLINK-4518,1 53550U 22101Z   23301.83057466  .00000623  00000-0  57265-4 0  9992,2 53550  53.2178 337.6497 0001667  86.1681 273.9501 15.08839298 66704,6917.883,95.438,540.901,538.594,0.0
53550.0,STARLINK-4518,PAYLOAD,2023-10-29 02:17:34,15.08841144,0.0001711,53.2173,336.4596,85.6995,274.4193,8.8115e-05,1.115e-05,0.0,0 STARLINK-4518,1 53550U 22101Z   23302.09553443  .00001115  00000-0  88115-4 0  9992,2 53550  53.2173 336.4596 0001711  85.6995 274.4193 15.08841144 66085,6917.877,95.437,540.926,538.558,0.0
53550.0,STARLINK-4518,PAYLOAD,2023-10-29 08:39:06,15.08846912,0.0001388,53.2162,335.2705,90.5946,269.5205,0.00020398,2.96e-05,0.0,0 STARLINK-4518,1 53550U 22101Z   23302.36049099  .00002960  00000-0  20398-3 0  9996,2 53550  53.2162 335.2705 0001388  90.5946 269.5205 15.08846912 66787,6917.859,95.437,540.684,538.764,0.0
53550.0,STARLINK-4518,PAYLOAD,2023-10-30 08:29:53,15.08839251,0.0001665,53.2167,330.8096,96.7375,263.3807,0.00012201,1.654e-05,0.0,0 STARLINK-4518,1 53550U 22101Z   23303.35409583  .00001654  00000-0  12201-3 0  9997,2 53550  53.2167 330.8096 0001665  96.7375 263.3807 15.08839251 66270,6917.883,95.438,540.9,538.596,0.0
53550.0,STARLINK-4518,PAYLOAD,2023-10-31 11:31:27,15.08841114,0.0001676,53.2179,325.7519,98.2435,261.8747,-3.7384e-05,-8.83e-06,0.0,0 STARLINK-4518,1 53550U 22101Z   23304.48017886 -.00000883  00000-0 -37384-4 0  9998,2 53550  53.2179 325.7519 0001676  98.2435 261.8747 15.08841114 66448,6917.877,95.437,540.901,538.583,0.0
53550.0,STARLINK-4518,PAYLOAD,2023-11-01 08:11:27,15.08846894,0.0001542,53.2172,321.8875,100.0978,260.0188,0.00016017,2.262e-05,0.0,0 STARLINK-4518,1 53550U 22101Z   23305.34129216  .00002262  00000-0  16017-3 0  9995,2 53550  53.2172 321.8875 0001542 100.0978 260.0188 15.08846894 66573,6917.859,95.437,540.791,538.658,0.0
53550.0,STARLINK-4518,PAYLOAD,2023-11-01 17:43:46,15.08840897,0.0001494,53.2173,320.1035,98.1673,261.9489,0.00014757,2.061e-05,0.0,0 STARLINK-4518,1 53550U 22101Z   23305.73873577  .00002061  00000-0  14757-3 0  9990,2 53550  53.2173 320.1035 0001494  98.1673 261.9489 15.08840897 66637,6917.878,95.437,540.776,538.709,0.0
53550.0,STARLINK-4518,PAYLOAD,2023-11-02 04:51:29,15.08836368,0.0001793,53.2181,318.0229,95.6307,264.4889,4.7153e-05,4.62e-06,0.0,0 STARLINK-4518,1 53550U 22101Z   23306.20242402  .00000462  00000-0  47153-4 0  9990,2 53550  53.2181 318.0229 0001793  95.6307 264.4889 15.08836368 66703,6917.891,95.438,540.997,538.516,0.0
53550.0,STARLINK-4518,PAYLOAD,2023-11-02 09:37:38,15.08838875,0.0001846,53.2186,317.1336,98.4785,261.6416,7.899e-05,9.69e-06,0.0,0 STARLINK-4518,1 53550U 22101Z   23306.40114307  .00000969  00000-0  78990-4 0  9999,2 53550  53.2186 317.1336 0001846  98.4785 261.6416 15.08838875 67393,6917.884,95.438,541.026,538.472,0.0
